start=new Date('2023-04-19T00:00:00.000Z').valueOf();
sats=[{"PERIOD":"95.592","CLASSIFICATION_TYPE":"U","MEAN_MOTION":"15.06394718","RA_OF_ASC_NODE":"29.5879","INCLINATION":"53.0554","RCS_SIZE":"LARGE","MEAN_MOTION_DDOT":"0.0000000000000","REV_AT_EPOCH":"18088","COUNTRY_CODE":"US","ARG_OF_PERICENTER":"128.6179","CENTER_NAME":"EARTH","GP_ID":"230307383","DECAY_DATE":null,"NORAD_CAT_ID":"44937","APOAPSIS":"548.096","ELEMENT_SET_NO":"999","EPOCH":"2023-04-18T03:42:23.854464","OBJECT_ID":"2020-001Z","MEAN_ELEMENT_THEORY":"SGP4","REF_FRAME":"TEME","MEAN_ANOMALY":"231.4922","PERIAPSIS":"546.363","SEMIMAJOR_AXIS":"6925.365","OBJECT_NAME":"STARLINK-1079","SITE":"AFETR","ECCENTRICITY":"0.00012510","FILE":"3889907","OBJECT_TYPE":"PAYLOAD","TIME_SYSTEM":"UTC","TLE_LINE2":"2 44937  53.0554  29.5879 0001251 128.6179 231.4922 15.06394718180886","BSTAR":"0.00174080000000","EPHEMERIS_TYPE":"0","TLE_LINE1":"1 44937U 20001Z   23108.15444276  .00025739  00000-0  17408-2 0  9995","MEAN_MOTION_DOT":"0.00025739","LAUNCH_DATE":"2020-01-07"},{"MEAN_MOTION_DDOT":"0.0000000000000","RCS_SIZE":"LARGE","INCLINATION":"53.0560","RA_OF_ASC_NODE":"26.7583","MEAN_MOTION":"15.06394266","CLASSIFICATION_TYPE":"U","PERIOD":"95.593","EPOCH":"2023-04-18T18:50:00.021408","ELEMENT_SET_NO":"999","APOAPSIS":"548.032","NORAD_CAT_ID":"44938","DECAY_DATE":null,"GP_ID":"230328235","ARG_OF_PERICENTER":"67.2007","CENTER_NAME":"EARTH","REV_AT_EPOCH":"18097","COUNTRY_CODE":"US","SEMIMAJOR_AXIS":"6925.366","SITE":"AFETR","ECCENTRICITY":"0.00011570","OBJECT_NAME":"STARLINK-1082","PERIAPSIS":"546.430","MEAN_ANOMALY":"292.9105","MEAN_ELEMENT_THEORY":"SGP4","OBJECT_ID":"2020-001AA","REF_FRAME":"TEME","MEAN_MOTION_DOT":"0.00014180","LAUNCH_DATE":"2020-01-07","TLE_LINE1":"1 44938U 20001AA  23108.78472247  .00014180  00000-0  96910-3 0  9998","EPHEMERIS_TYPE":"0","BSTAR":"0.00096910000000","TLE_LINE2":"2 44938  53.0560  26.7583 0001157  67.2007 292.9105 15.06394266180971","TIME_SYSTEM":"UTC","FILE":"3889987","OBJECT_TYPE":"PAYLOAD"},{"MEAN_ANOMALY":"267.0813","MEAN_ELEMENT_THEORY":"SGP4","OBJECT_ID":"2020-001AB","REF_FRAME":"TEME","SEMIMAJOR_AXIS":"6925.395","SITE":"AFETR","ECCENTRICITY":"0.00008650","OBJECT_NAME":"STARLINK-1083","PERIAPSIS":"546.661","TIME_SYSTEM":"UTC","TLE_LINE2":"2 44939  53.0543  26.7237 0000865  93.0275 267.0813 15.06384721180972","FILE":"3889987","OBJECT_TYPE":"PAYLOAD","BSTAR":"0.00077215000000","EPHEMERIS_TYPE":"0","MEAN_MOTION_DOT":"0.00011234","LAUNCH_DATE":"2020-01-07","TLE_LINE1":"1 44939U 20001AB  23108.79209949  .00011234  00000-0  77215-3 0  9991","CLASSIFICATION_TYPE":"U","PERIOD":"95.593","RA_OF_ASC_NODE":"26.7237","MEAN_MOTION":"15.06384721","RCS_SIZE":"LARGE","MEAN_MOTION_DDOT":"0.0000000000000","INCLINATION":"53.0543","ARG_OF_PERICENTER":"93.0275","CENTER_NAME":"EARTH","REV_AT_EPOCH":"18097","COUNTRY_CODE":"US","DECAY_DATE":null,"GP_ID":"230328483","APOAPSIS":"547.859","NORAD_CAT_ID":"44939","EPOCH":"2023-04-18T19:00:37.395936","ELEMENT_SET_NO":"999"},{"BSTAR":"0.00236420000000","TIME_SYSTEM":"UTC","TLE_LINE2":"2 44940  53.0555  29.6529 0001278 115.1485 244.9637 15.06379840180874","FILE":"3889684","OBJECT_TYPE":"PAYLOAD","MEAN_MOTION_DOT":"0.00035090","LAUNCH_DATE":"2020-01-07","TLE_LINE1":"1 44940U 20001AC  23108.13968149  .00035090  00000-0  23642-2 0  9995","EPHEMERIS_TYPE":"0","MEAN_ANOMALY":"244.9637","OBJECT_ID":"2020-001AC","MEAN_ELEMENT_THEORY":"SGP4","REF_FRAME":"TEME","SEMIMAJOR_AXIS":"6925.410","SITE":"AFETR","OBJECT_NAME":"STARLINK-1091","ECCENTRICITY":"0.00012780","PERIAPSIS":"546.390","DECAY_DATE":null,"GP_ID":"230294417","CENTER_NAME":"EARTH","ARG_OF_PERICENTER":"115.1485","REV_AT_EPOCH":"18087","COUNTRY_CODE":"US","EPOCH":"2023-04-18T03:21:08.480736","ELEMENT_SET_NO":"999","APOAPSIS":"548.160","NORAD_CAT_ID":"44940","RA_OF_ASC_NODE":"29.6529","MEAN_MOTION":"15.06379840","CLASSIFICATION_TYPE":"U","PERIOD":"95.593","RCS_SIZE":"LARGE","INCLINATION":"53.0555","MEAN_MOTION_DDOT":"0.0000000000000"},{"FILE":"3889987","OBJECT_TYPE":"PAYLOAD","TIME_SYSTEM":"UTC","TLE_LINE2":"2 44941  53.0547  26.8737 0001161  99.3205 260.7915 15.06401343180970","BSTAR":"0.00118900000000","EPHEMERIS_TYPE":"0","TLE_LINE1":"1 44941U 20001AD  23108.75895268  .00017474  00000-0  11890-2 0  9993","MEAN_MOTION_DOT":"0.00017474","LAUNCH_DATE":"2020-01-07","OBJECT_ID":"2020-001AD","MEAN_ELEMENT_THEORY":"SGP4","REF_FRAME":"TEME","MEAN_ANOMALY":"260.7915","PERIAPSIS":"546.405","SEMIMAJOR_AXIS":"6925.344","ECCENTRICITY":"0.00011610","SITE":"AFETR","OBJECT_NAME":"STARLINK-1094","REV_AT_EPOCH":"18097","COUNTRY_CODE":"US","CENTER_NAME":"EARTH","ARG_OF_PERICENTER":"99.3205","DECAY_DATE":null,"GP_ID":"230327485","NORAD_CAT_ID":"44941","APOAPSIS":"548.013","ELEMENT_SET_NO":"999","EPOCH":"2023-04-18T18:12:53.511552","PERIOD":"95.592","CLASSIFICATION_TYPE":"U","MEAN_MOTION":"15.06401343","RA_OF_ASC_NODE":"26.8737","RCS_SIZE":"LARGE","INCLINATION":"53.0547","MEAN_MOTION_DDOT":"0.0000000000000"},{"OBJECT_ID":"2020-001AE","MEAN_ELEMENT_THEORY":"SGP4","REF_FRAME":"TEME","MEAN_ANOMALY":"280.7983","PERIAPSIS":"501.164","SEMIMAJOR_AXIS":"6883.409","SITE":"AFETR","OBJECT_NAME":"STARLINK-1096","ECCENTRICITY":"0.00059700","BSTAR":"0.00020274000000","FILE":"3889764","OBJECT_TYPE":"PAYLOAD","TLE_LINE2":"2 44942  53.0576  16.4693 0005970  79.3684 280.7983 15.20188385181073","TIME_SYSTEM":"UTC","TLE_LINE1":"1 44942U 20001AE  23108.15818477  .00004125  00000-0  20274-3 0  9991","MEAN_MOTION_DOT":"0.00004125","LAUNCH_DATE":"2020-01-07","EPHEMERIS_TYPE":"0","MEAN_MOTION":"15.20188385","RA_OF_ASC_NODE":"16.4693","PERIOD":"94.725","CLASSIFICATION_TYPE":"U","INCLINATION":"53.0576","RCS_SIZE":"LARGE","MEAN_MOTION_DDOT":"0.0000000000000","DECAY_DATE":null,"GP_ID":"230304022","REV_AT_EPOCH":"18107","COUNTRY_CODE":"US","ARG_OF_PERICENTER":"79.3684","CENTER_NAME":"EARTH","ELEMENT_SET_NO":"999","EPOCH":"2023-04-18T03:47:47.164128","NORAD_CAT_ID":"44942","APOAPSIS":"509.383"},{"EPOCH":"2023-04-18T04:35:26.157408","ELEMENT_SET_NO":"999","APOAPSIS":"547.709","NORAD_CAT_ID":"44943","DECAY_DATE":null,"GP_ID":"230295170","CENTER_NAME":"EARTH","ARG_OF_PERICENTER":"47.6792","REV_AT_EPOCH":"18088","COUNTRY_CODE":"US","RCS_SIZE":"LARGE","MEAN_MOTION_DDOT":"0.0000000000000","INCLINATION":"53.0546","RA_OF_ASC_NODE":"29.4204","MEAN_MOTION":"15.06451863","CLASSIFICATION_TYPE":"U","PERIOD":"95.589","MEAN_MOTION_DOT":"0.00039849","LAUNCH_DATE":"2020-01-07","TLE_LINE1":"1 44943U 20001AF  23108.19127497  .00039849  00000-0  26753-2 0  9999","EPHEMERIS_TYPE":"0","BSTAR":"0.00267530000000","TIME_SYSTEM":"UTC","TLE_LINE2":"2 44943  53.0546  29.4204 0000945  47.6792 312.4277 15.06451863180883","FILE":"3889684","OBJECT_TYPE":"PAYLOAD","SEMIMAJOR_AXIS":"6925.190","ECCENTRICITY":"0.00009450","SITE":"AFETR","OBJECT_NAME":"STARLINK-1100","PERIAPSIS":"546.400","MEAN_ANOMALY":"312.4277","MEAN_ELEMENT_THEORY":"SGP4","OBJECT_ID":"2020-001AF","REF_FRAME":"TEME"},{"PERIOD":"95.592","CLASSIFICATION_TYPE":"U","MEAN_MOTION":"15.06403158","RA_OF_ASC_NODE":"26.8231","RCS_SIZE":"LARGE","INCLINATION":"53.0544","MEAN_MOTION_DDOT":"0.0000000000000","COUNTRY_CODE":"US","REV_AT_EPOCH":"18097","ARG_OF_PERICENTER":"90.0413","CENTER_NAME":"EARTH","DECAY_DATE":null,"GP_ID":"230327238","NORAD_CAT_ID":"44944","APOAPSIS":"548.079","ELEMENT_SET_NO":"999","EPOCH":"2023-04-18T18:28:45.993792","REF_FRAME":"TEME","OBJECT_ID":"2020-001AG","MEAN_ELEMENT_THEORY":"SGP4","MEAN_ANOMALY":"270.0721","PERIAPSIS":"546.329","SITE":"AFETR","ECCENTRICITY":"0.00012640","OBJECT_NAME":"STARLINK-1108","SEMIMAJOR_AXIS":"6925.339","OBJECT_TYPE":"PAYLOAD","FILE":"3889987","TLE_LINE2":"2 44944  53.0544  26.8231 0001264  90.0413 270.0721 15.06403158180977","TIME_SYSTEM":"UTC","BSTAR":"0.00118740000000","EPHEMERIS_TYPE":"0","TLE_LINE1":"1 44944U 20001AG  23108.76997678  .00017450  00000-0  11874-2 0  9991","LAUNCH_DATE":"2020-01-07","MEAN_MOTION_DOT":"0.00017450"},{"MEAN_MOTION":"15.06388797","RA_OF_ASC_NODE":"26.6936","PERIOD":"95.593","CLASSIFICATION_TYPE":"U","RCS_SIZE":"LARGE","MEAN_MOTION_DDOT":"0.0000000000000","INCLINATION":"53.0558","GP_ID":"230326988","DECAY_DATE":null,"COUNTRY_CODE":"US","REV_AT_EPOCH":"18097","CENTER_NAME":"EARTH","ARG_OF_PERICENTER":"44.3208","ELEMENT_SET_NO":"999","EPOCH":"2023-04-18T19:11:14.689248","NORAD_CAT_ID":"44945","APOAPSIS":"547.909","REF_FRAME":"TEME","MEAN_ELEMENT_THEORY":"SGP4","OBJECT_ID":"2020-001AH","MEAN_ANOMALY":"315.7857","PERIAPSIS":"546.587","SITE":"AFETR","OBJECT_NAME":"STARLINK-1109","ECCENTRICITY":"0.00009540","SEMIMAJOR_AXIS":"6925.383","BSTAR":"0.00203880000000","OBJECT_TYPE":"PAYLOAD","FILE":"3889987","TIME_SYSTEM":"UTC","TLE_LINE2":"2 44945  53.0558  26.6936 0000954  44.3208 315.7857 15.06388797180970","TLE_LINE1":"1 44945U 20001AH  23108.79947557  .00030208  00000-0  20388-2 0  9992","LAUNCH_DATE":"2020-01-07","MEAN_MOTION_DOT":"0.00030208","EPHEMERIS_TYPE":"0"},{"OBJECT_TYPE":"PAYLOAD","FILE":"3889987","TIME_SYSTEM":"UTC","TLE_LINE2":"2 44946  53.0153 342.4018 0005091 193.7346 166.3517 15.33845762181548","BSTAR":"0.00341250000000","EPHEMERIS_TYPE":"0","TLE_LINE1":"1 44946U 20001AJ  23108.68094732  .00114702  00000-0  34125-2 0  9995","LAUNCH_DATE":"2020-01-07","MEAN_MOTION_DOT":"0.00114702","REF_FRAME":"TEME","MEAN_ELEMENT_THEORY":"SGP4","OBJECT_ID":"2020-001AJ","MEAN_ANOMALY":"166.3517","PERIAPSIS":"460.870","SITE":"AFETR","ECCENTRICITY":"0.00050910","OBJECT_NAME":"STARLINK-1110","SEMIMAJOR_AXIS":"6842.488","COUNTRY_CODE":"US","REV_AT_EPOCH":"18154","CENTER_NAME":"EARTH","ARG_OF_PERICENTER":"193.7346","GP_ID":"230328236","DECAY_DATE":null,"NORAD_CAT_ID":"44946","APOAPSIS":"467.837","ELEMENT_SET_NO":"999","EPOCH":"2023-04-18T16:20:33.848448","PERIOD":"93.882","CLASSIFICATION_TYPE":"U","MEAN_MOTION":"15.33845762","RA_OF_ASC_NODE":"342.4018","RCS_SIZE":"LARGE","MEAN_MOTION_DDOT":"0.0000000000000","INCLINATION":"53.0153"}];
